NORAD_CAT_ID,OBJECT_NAME,OBJECT_TYPE,EPOCH,MEAN_MOTION,ECCENTRICITY,INCLINATION,RA_OF_ASC_NODE,ARG_OF_PERICENTER,MEAN_ANOMALY,BSTAR,MEAN_MOTION_DOT,MEAN_MOTION_DDOT,TLE_LINE0,TLE_LINE1,TLE_LINE2,SEMIMAJOR_AXIS,PERIOD,APOGEE,PERIGEE,DECAYED
55309.0,STARLINK-5315,PAYLOAD,2023-08-27 02:17:37,14.99315711,0.0002902,69.999,178.3496,266.6433,93.4395,-0.00022944,-2.901e-05,0.0,0 STARLINK-5315,1 55309U 23010AS  23239.09557637 -.00002901  00000-0 -22944-3 0  9997,2 55309  69.9990 178.3496 0002902 266.6433  93.4395 14.99315711 34806,6947.146,96.044,571.027,566.995,0.0
55309.0,STARLINK-5315,PAYLOAD,2023-08-27 05:29:46,14.99317047,0.0002902,69.9988,178.0125,265.2501,94.8327,-0.00018348,-2.339e-05,0.0,0 STARLINK-5315,1 55309U 23010AS  23239.22900649 -.00002339  00000-0 -18348-3 0  9995,2 55309  69.9988 178.0125 0002902 265.2501  94.8327 14.99317047 35142,6947.142,96.044,571.023,566.991,0.0
55309.0,STARLINK-5315,PAYLOAD,2023-08-27 21:30:29,14.99301739,0.0002964,69.9988,176.3278,269.3003,90.7816,-1.6071e-05,-2.91e-06,0.0,0 STARLINK-5315,1 55309U 23010AS  23239.89617693 -.00000291  00000-0 -16071-4 0  9999,2 55309  69.9988 176.3278 0002964 269.3003  90.7816 14.99301739 35242,6947.189,96.045,571.114,566.995,0.0
55309.0,STARLINK-5315,PAYLOAD,2023-08-28 02:18:42,14.9930502,0.0002967,69.9988,175.8226,269.2234,90.8585,1.9161e-05,1.41e-06,0.0,0 STARLINK-5315,1 55309U 23010AS  23240.09632391  .00000141  00000-0  19161-4 0  9990,2 55309  69.9988 175.8226 0002967 269.2234  90.8585 14.99305020 34955,6947.179,96.044,571.106,566.983,0.0
55309.0,STARLINK-5315,PAYLOAD,2023-08-28 21:31:34,14.99298575,0.0002946,69.9989,173.8006,270.5524,89.5298,-4.3924e-05,-6.31e-06,0.0,0 STARLINK-5315,1 55309U 23010AS  23240.89693009 -.00000631  00000-0 -43924-4 0  9991,2 55309  69.9989 173.8006 0002946 270.5524  89.5298 14.99298575 35395,6947.199,96.045,571.111,567.018,0.0
55309.0,STARLINK-5315,PAYLOAD,2023-08-29 02:19:47,14.9930181,0.0002918,69.999,173.2955,270.0927,89.9898,4.7305e-07,-8.8e-07,0.0,0 STARLINK-5315,1 55309U 23010AS  23241.09707758 -.00000088  00000-0  47305-6 0  9995,2 55309  69.9990 173.2955 0002918 270.0927  89.9898 14.99301810 35101,6947.189,96.045,571.081,567.027,0.0
55309.0,STARLINK-5315,PAYLOAD,2023-08-29 19:56:35,14.99298571,0.0002919,69.9993,171.4438,268.8105,91.272,-7.6706e-05,-1.032e-05,0.0,0 STARLINK-5315,1 55309U 23010AS  23241.83096632 -.00001032  00000-0 -76706-4 0  9995,2 55309  69.9993 171.4438 0002919 268.8105  91.2720 14.99298571 35530,6947.199,96.045,571.092,567.036,0.0
55309.0,STARLINK-5315,PAYLOAD,2023-08-30 00:44:48,14.99296628,0.0002924,69.9992,170.9381,269.2677,90.8148,-6.6129e-05,-9.03e-06,0.0,0 STARLINK-5315,1 55309U 23010AS  23242.03111781 -.00000903  00000-0 -66129-4 0  9995,2 55309  69.9992 170.9381 0002924 269.2677  90.8148 14.99296628 35243,6947.205,96.045,571.102,567.039,0.0
55309.0,STARLINK-5315,PAYLOAD,2023-08-30 11:57:18,14.99306488,0.0002908,69.9991,169.7586,269.5356,90.5471,-0.00012239,-1.591e-05,0.0,0 STARLINK-5315,1 55309U 23010AS  23242.49813059 -.00001591  00000-0 -12239-3 0  9998,2 55309  69.9991 169.7586 0002908 269.5356  90.5471 14.99306488 35314,6947.175,96.044,571.06,567.02,0.0
55309.0,STARLINK-5315,PAYLOAD,2023-08-31 05:34:05,14.99301546,0.0002817,69.9997,167.9058,271.238,88.8457,0.00011932,1.366e-05,0.0,0 STARLINK-5315,1 55309U 23010AS  23243.23201173  .00001366  00000-0  11932-3 0  9996,2 55309  69.9997 167.9058 0002817 271.2380  88.8457 14.99301546 35741,6947.19,96.045,571.012,567.098,0.0
55309.0,STARLINK-5315,PAYLOAD,2023-09-01 00:47:07,14.99220798,0.000192,70.0002,165.89,271.8993,88.1946,-0.00084763,-0.00010428,0.0,0 STARLINK-5315,1 55309U 23010AS  23244.03272350 -.00010428  00000-0 -84763-3 0  9993,2 55309  70.0002 165.8900 0001920 271.8993  88.1946 14.99220798 35547,6947.44,96.05,570.638,567.971,0.0
55309.0,STARLINK-5315,PAYLOAD,2023-09-01 10:23:24,14.99290877,0.0002705,69.999,164.8784,268.2006,91.8844,0.00023593,2.793e-05,0.0,0 STARLINK-5315,1 55309U 23010AS  23244.43292162  .00002793  00000-0  23593-3 0  9998,2 55309  69.9990 164.8784 0002705 268.2006  91.8844 14.99290877 35606,6947.223,96.045,570.967,567.209,0.0
55309.0,STARLINK-5315,PAYLOAD,2023-09-01 18:23:37,14.99575979,0.0008874,69.9967,164.03,250.6877,109.3324,-0.0034768,-0.00042717,0.0,0 STARLINK-5315,1 55309U 23010AS  23244.76640518 -.00042717  00000-0 -34768-2 0  9993,2 55309  69.9967 164.0300 0008874 250.6877 109.3324 14.99575979 35652,6946.342,96.027,574.372,562.043,0.0
55309.0,STARLINK-5315,PAYLOAD,2023-09-02 04:00:00,14.99301562,0.0003147,70.001,163.0196,271.3277,88.1058,-0.0011141,-0.000137,0.0,0 STARLINK-5315,1 55309U 23010AS  23245.16667824 -.00013700  00000-0 -11141-2 0  9997,2 55309  70.0010 163.0196 0003147 271.3277  88.1058 14.99301562 35718,6947.19,96.045,571.241,566.869,0.0
55309.0,STARLINK-5315,PAYLOAD,2023-09-02 08:00:01,14.99301218,0.0003149,70.0005,162.5988,270.3571,268.3976,-0.0020242,-0.00024775,0.0,0 STARLINK-5315,1 55309U 23010AS  23245.33334491 -.00024775  00000-0 -20242-2 0  9993,2 55309  70.0005 162.5988 0003149 270.3571 268.3976 14.99301218  5742,6947.191,96.045,571.244,566.868,0.0
55309.0,STARLINK-5315,PAYLOAD,2023-09-02 20:00:54,14.99300198,0.0003158,69.9977,161.3334,269.2102,90.8696,-1.7312e-05,-3.06e-06,0.0,0 STARLINK-5315,1 55309U 23010AS  23245.83396979 -.00000306  00000-0 -17312-4 0  9997,2 55309  69.9977 161.3334 0003158 269.2102  90.8696 14.99300198 36136,6947.194,96.045,571.253,566.865,0.0
55309.0,STARLINK-5315,PAYLOAD,2023-09-03 00:49:07,14.99311343,0.0003356,69.9986,160.8288,268.0512,92.0264,-0.00015687,-2.013e-05,0.0,0 STARLINK-5315,1 55309U 23010AS  23246.03411988 -.00002013  00000-0 -15687-3 0  9997,2 55309  69.9986 160.8288 0003356 268.0512  92.0264 14.99311343 35846,6947.16,96.044,571.356,566.693,0.0
55309.0,STARLINK-5315,PAYLOAD,2023-09-03 12:01:38,14.99299091,0.0002747,69.9985,159.6497,270.8606,89.2239,-1.9454e-05,-3.32e-06,0.0,0 STARLINK-5315,1 55309U 23010AS  23246.50113852 -.00000332  00000-0 -19454-4 0  9997,2 55309  69.9985 159.6497 0002747 270.8606  89.2239 14.99299091 36230,6947.198,96.045,570.971,567.154,0.0
55309.0,STARLINK-5315,PAYLOAD,2023-09-04 00:50:13,14.99294973,0.0003367,69.9996,158.3016,273.0943,86.9831,-7.2318e-06,-1.82e-06,0.0,0 STARLINK-5315,1 55309U 23010AS  23247.03487466 -.00000182  00000-0 -72318-5 0  9993,2 55309  69.9996 158.3016 0003367 273.0943  86.9831 14.99294973 35991,6947.21,96.045,571.415,566.736,0.0
55309.0,STARLINK-5315,PAYLOAD,2023-09-04 12:02:42,14.9931725,0.000327,69.9988,157.1232,271.6596,88.4189,-0.0002444,-3.084e-05,0.0,0 STARLINK-5315,1 55309U 23010AS  23247.50188412 -.00003084  00000-0 -24440-3 0  9999,2 55309  69.9988 157.1232 0003270 271.6596  88.4189 14.99317250 36381,6947.142,96.044,571.278,566.735,0.0
55309.0,STARLINK-5315,PAYLOAD,2023-09-04 18:27:03,14.99264223,0.0003637,69.9995,156.4495,265.0408,95.0336,-0.00040742,-5.071e-05,0.0,0 STARLINK-5315,1 55309U 23010AS  23247.76879067 -.00005071  00000-0 -40742-3 0  9991,2 55309  69.9995 156.4495 0003637 265.0408  95.0336 14.99264223 36107,6947.305,96.047,571.697,566.644,0.0
55309.0,STARLINK-5315,PAYLOAD,2023-09-05 04:00:00,14.98313071,0.0003116,69.9999,155.4451,272.1324,74.1823,0.0031293,0.00037429,0.0,0 STARLINK-5315,1 55309U 23010AS  23248.16667824  .00037429  00000-0  31293-2 0  9992,2 55309  69.9999 155.4451 0003116 272.1324  74.1823 14.98313071 36160,6950.245,96.108,574.276,569.945,0.0
55309.0,STARLINK-5315,PAYLOAD,2023-09-05 12:00:00,14.983135,0.00031,69.9999,154.6047,269.1328,74.6743,0.00087892,0.00010405,0.0,0 STARLINK-5315,1 55309U 23010AS  23248.50001157  .00010405  00000-0  87892-3 0  9993,2 55309  69.9999 154.6047 0003100 269.1328  74.6743 14.98313500 36214,6950.244,96.108,574.263,569.954,0.0
55309.0,STARLINK-5315,PAYLOAD,2023-09-05 14:00:01,14.9828829,0.0003151,69.9998,154.3947,267.3267,165.8553,0.0058798,0.000707,0.0,0 STARLINK-5315,1 55309U 23010AS  23248.58334491  .00070700  00000-0  58798-2 0  9997,2 55309  69.9998 154.3947 0003151 267.3267 165.8553 14.98288290  5896,6950.322,96.11,574.377,569.997,0.0
55309.0,STARLINK-5315,PAYLOAD,2023-09-06 14:00:01,14.9829197,0.000312,69.9997,151.8736,268.5658,157.0688,0.0063282,0.00076166,0.0,0 STARLINK-5315,1 55309U 23010AS  23249.58334491  .00076166  00000-0  63282-2 0  9994,2 55309  69.9997 151.8736 0003120 268.5658 157.0688 14.98291970 36385,6950.31,96.109,574.344,570.007,0.0
55309.0,STARLINK-5315,PAYLOAD,2023-09-06 22:00:00,14.9836019,0.0003135,69.9999,151.0331,270.5337,152.5687,-0.0036902,-0.00043884,0.0,0 STARLINK-5315,1 55309U 23010AS  23249.91667824 -.00043884  00000-0 -36902-2 0  9992,2 55309  69.9999 151.0331 0003135 270.5337 152.5687 14.98360190  5862,6950.1,96.105,574.143,569.786,0.0
55309.0,STARLINK-5315,PAYLOAD,2023-09-07 06:00:00,14.98336016,0.0003101,69.9996,150.1925,273.1832,147.4198,-0.0017659,-0.00021104,0.0,0 STARLINK-5315,1 55309U 23010AS  23250.25001157 -.00021104  00000-0 -17659-2 0  9991,2 55309  69.9996 150.1925 0003101 273.1832 147.4198 14.98336016 36482,6950.174,96.107,574.195,569.884,0.0
55309.0,STARLINK-5315,PAYLOAD,2023-09-07 14:00:01,14.98285545,0.0003098,69.9997,149.3521,265.1681,152.9252,0.006543,0.00078771,0.0,0 STARLINK-5315,1 55309U 23010AS  23250.58334491  .00078771  00000-0  65430-2 0  9997,2 55309  69.9997 149.3521 0003098 265.1681 152.9252 14.98285545  5728,6950.33,96.11,574.349,570.042,0.0
55309.0,STARLINK-5315,PAYLOAD,2023-09-07 22:00:00,14.98354018,0.0003113,70.0001,148.5117,268.2326,147.3223,-0.0037029,-0.00044027,0.0,0 STARLINK-5315,1 55309U 23010AS  23250.91667824 -.00044027  00000-0 -37029-2 0  9995,2 55309  70.0001 148.5117 0003113 268.2326 147.3223 14.98354018 36583,6950.119,96.105,574.147,569.82,0.0
55309.0,STARLINK-5315,PAYLOAD,2023-09-08 14:00:01,14.98286352,0.0003113,69.9999,146.8307,265.6713,144.8619,0.0068066,0.00081987,0.0,0 STARLINK-5315,1 55309U 23010AS  23251.58334491  .00081987  00000-0  68066-2 0  9999,2 55309  69.9999 146.8307 0003113 265.6713 144.8619 14.98286352 36686,6950.328,96.11,574.357,570.029,0.0
